{
"type": "FeatureCollection",
"name": "instituciones_educativas_2",
"crs": { "type": "name", "properties": { "name": "urn:ogc:def:crs:OGC:1.3:CRS84" } },
"features": [
{"type":"Feature","properties":{"id":17,"Nombre":"Universidad del Valle"},"geometry":{"type":"MultiPolygon","coordinates":[[[[-75.930036031746241,4.270382250668862],[-75.929835087145022,4.27015644900266],[-75.929696876468071,4.270132989085477],[-75.929680212769412,4.270149606526889],[-75.929938990207134,4.270464360349187],[-75.930036031746241,4.270382250668862]]]]}},
{"type":"Feature","properties":{"id":1,"Nombre":"Liceo Mixto"},"geometry":{"type":"MultiPolygon","coordinates":[[[[-75.934821116722134,4.262353761742977],[-75.934720326377075,4.262348401125497],[-75.934717638634524,4.262359122360422],[-75.93433732306579,4.26233499958163],[-75.934338666937066,4.26222644706769],[-75.934521433429481,4.2622331478406],[-75.934536216013399,4.262048206486868],[-75.934723014119612,4.262056247416217],[-75.934729733475947,4.261844502915329],[-75.9345913147354,4.261831101362677],[-75.934454239866099,4.261828421052119],[-75.9344408011534,4.2618297612074],[-75.934313133383,4.261824400586264],[-75.934302382412824,4.26199862075403],[-75.934315821125523,4.262026764008195],[-75.934302382412824,4.262305516184297],[-75.934166651414827,4.262305516184297],[-75.934198904325257,4.261689044890212],[-75.934858745117651,4.261731929865796],[-75.934821116722134,4.262353761742977]]]]}},
{"type":"Feature","properties":{"id":2,"Nombre":"Colegio General Santander"},"geometry":{"type":"MultiPolygon","coordinates":[[[[-75.931041350169266,4.2699841466302],[-75.930872022389579,4.270130221990981],[-75.930695975253514,4.269910438868792],[-75.930626093947609,4.269970745219561],[-75.930689255897192,4.270049813538947],[-75.930537398443917,4.270187848043091],[-75.930400323574645,4.270040432552327],[-75.930475580365609,4.269970745219561],[-75.930196055141977,4.269634369735881],[-75.93031565968478,4.269531178820896],[-75.930603248136052,4.269850132513286],[-75.930823643023913,4.269637050019203],[-75.930925777240262,4.269746941627313],[-75.930878741745914,4.269784465587453],[-75.930920401755188,4.269838071241615],[-75.931041350169266,4.2699841466302]]]]}},
{"type":"Feature","properties":{"id":3,"Nombre":"Santa Mariana de Jesus"},"geometry":{"type":"MultiPolygon","coordinates":[[[[-75.931381735438123,4.263318269187914],[-75.931607505811073,4.263330330561975],[-75.93157256515812,4.26385433007463],[-75.931125056025977,4.263827527039175],[-75.931135806996153,4.263568877698995],[-75.931197625074461,4.263571558003483],[-75.931197625074461,4.263555476176406],[-75.931162684421494,4.263556816328676],[-75.931165372164031,4.263461665511741],[-75.931220470885989,4.263461665511741],[-75.93123525346995,4.263291466133763],[-75.931307822518406,4.26329414643922],[-75.931293039934459,4.263579598916896],[-75.931478494169383,4.263587639830225],[-75.93148655739698,4.263441563224966],[-75.931373672210512,4.263437542767548],[-75.931381735438123,4.263318269187914]]]]}},
{"type":"Feature","properties":{"id":4,"Nombre":"Colegio San Luis"},"geometry":{"type":"MultiPolygon","coordinates":[[[[-75.929559204522377,4.261235915139965],[-75.929302525110273,4.261227874202039],[-75.929307900595319,4.261146124661672],[-75.929486635473936,4.261151485287536],[-75.929494698701532,4.26098262555487],[-75.929236675418153,4.260967883830419],[-75.929239363160676,4.260894175203914],[-75.92949066708772,4.260900875988433],[-75.929492010958981,4.260947781478436],[-75.929560548393624,4.260947781478436],[-75.929559204522377,4.261235915139965]]]]}},
{"type":"Feature","properties":{"id":5,"Nombre":"John F. Kennedy"},"geometry":{"type":"MultiPolygon","coordinates":[[[[-75.930341815304331,4.261231125128123],[-75.930118732673904,4.261217723564781],[-75.930133515257864,4.260977835541452],[-75.930353910145769,4.260991237108974],[-75.930341815304331,4.261231125128123]]]]}},
{"type":"Feature","properties":{"id":6,"Nombre":"Primitivo Crespo"},"geometry":{"type":"MultiPolygon","coordinates":[[[[-75.930891458652766,4.261093089014514],[-75.930876676068848,4.261343698250975],[-75.930797387664043,4.261343698250975],[-75.93079604379281,4.261292772316488],[-75.930736913457025,4.261287411691609],[-75.930736913457025,4.261341017938717],[-75.930566241806034,4.261328956533445],[-75.930583712132517,4.261078347292179],[-75.930738257328287,4.261086388231669],[-75.930727506358153,4.261166797621952],[-75.930677783121254,4.261165457465516],[-75.930676439249979,4.261225764502814],[-75.930805450891683,4.261231125128123],[-75.930809482505467,4.261089068544815],[-75.930891458652766,4.261093089014514]]]]}},
{"type":"Feature","properties":{"id":7,"Nombre":"María Inmaculada"},"geometry":{"type":"MultiPolygon","coordinates":[[[[-75.932802223116411,4.26481491465043],[-75.93279953537386,4.264904704700148],[-75.932681274702333,4.264898003950531],[-75.93267186760346,4.265156652843318],[-75.932584515971044,4.265151292245387],[-75.932597954683729,4.264891303200855],[-75.932463567556979,4.264884602451121],[-75.932448784973033,4.265141911198919],[-75.932369496568242,4.265141911198919],[-75.932385623023464,4.264792132098832],[-75.932802223116411,4.26481491465043]]]]}},
{"type":"Feature","properties":{"id":8,"Nombre":"Rafael Pombo"},"geometry":{"type":"MultiPolygon","coordinates":[[[[-75.933148941903454,4.265207578521794],[-75.933233605793319,4.265212939119332],[-75.933232261922043,4.265313450316241],[-75.933365305177546,4.26531881091304],[-75.933367992920083,4.265385818369873],[-75.933139534804582,4.265376437326268],[-75.933148941903454,4.265207578521794]]]]}},
{"type":"Feature","properties":{"id":9,"Nombre":"Hugo Toro Echeverry"},"geometry":{"type":"MultiPolygon","coordinates":[[[[-75.932156960177565,4.266122847659739],[-75.932054825961245,4.266117487068551],[-75.932093798227996,4.26568327905807],[-75.931826367845744,4.265659156383623],[-75.931820992360684,4.265738225147035],[-75.93169735620404,4.265724823662283],[-75.931696012332793,4.265647095046116],[-75.931662415551088,4.265641734451608],[-75.931647632967127,4.265802552270586],[-75.931557593592217,4.265794511380435],[-75.931579095532513,4.265538543000033],[-75.932203995671927,4.265592148950633],[-75.932156960177565,4.266122847659739]]]]}},
{"type":"Feature","properties":{"id":17,"Nombre":"Universidad del Valle"},"geometry":{"type":"MultiPolygon","coordinates":[[[[-75.930171686976252,4.270251635596631],[-75.930088366957648,4.270321322903888],[-75.929816904961598,4.270031852509219],[-75.929709395260161,4.270077417300806],[-75.929669079122164,4.270069376455429],[-75.929604573301319,4.269999689125293],[-75.929620699756512,4.26994340320018],[-75.929741648170591,4.269889797553375],[-75.92979540302133,4.2700077299714],[-75.929881410782428,4.269938042635666],[-75.930171686976252,4.270251635596631]]]]}},
{"type":"Feature","properties":{"id":17,"Nombre":"Universidad del Valle"},"geometry":{"type":"MultiPolygon","coordinates":[[[[-75.929831994641134,4.270144879780808],[-75.929721125261551,4.270122767457761],[-75.929729860424771,4.270079212880199],[-75.929840729804383,4.270100655134076],[-75.929831994641134,4.270144879780808]]]]}},
{"type":"Feature","properties":{"id":11,"Nombre":"San Juan Bosco"},"geometry":{"type":"MultiPolygon","coordinates":[[[[-75.932813512159953,4.272748682504915],[-75.932507109510937,4.272727240325052],[-75.932539362421366,4.272448491932282],[-75.932835014100235,4.272456532752725],[-75.932813512159953,4.272748682504915]]]]}},
{"type":"Feature","properties":{"id":12,"Nombre":"Armando Romero"},"geometry":{"type":"MultiPolygon","coordinates":[[[[-75.931645210324135,4.273720916691234],[-75.931517542553706,4.273720246623973],[-75.931524933845694,4.27363715827894],[-75.931657977101182,4.27364452901959],[-75.931645210324135,4.273720916691234]]]]}},
{"type":"Feature","properties":{"id":13,"Nombre":"Heraclio Uribe"},"geometry":{"type":"MultiPolygon","coordinates":[[[[-75.936232921732113,4.268186633224753],[-75.936250392058582,4.267937366364833],[-75.936539324381101,4.267958808678546],[-75.93651916631211,4.268205395243192],[-75.936232921732113,4.268186633224753]]]]}},
{"type":"Feature","properties":{"id":14,"Nombre":"Ricardo Nieto"},"geometry":{"type":"MultiPolygon","coordinates":[[[[-75.936614169086567,4.277785740701041],[-75.936700176847694,4.278205200467156],[-75.93652144196912,4.278229322747039],[-75.936455592276999,4.277938515211142],[-75.936477094217281,4.277921093558021],[-75.936447529049389,4.277797801847683],[-75.936505315513884,4.277791101210683],[-75.936506659385159,4.277799141975077],[-75.936614169086567,4.277785740701041]]]]}},
{"type":"Feature","properties":{"id":15,"Nombre":"Cristobal Colón"},"geometry":{"type":"MultiPolygon","coordinates":[[[[-75.935278626146143,4.288741735239691],[-75.93539016746135,4.288773227782274],[-75.93534111616006,4.288962183010507],[-75.935449969732758,4.288994345597892],[-75.9354291397281,4.289066711414558],[-75.935200009676976,4.289001046136759],[-75.935278626146143,4.288741735239691]]]]}},
{"type":"Feature","properties":{"id":16,"Nombre":"Colegio San Carlos"},"geometry":{"type":"MultiPolygon","coordinates":[[[[-75.933576349104243,4.263166824649313],[-75.933480474516017,4.263159995412459],[-75.933482964765062,4.263063144410535],[-75.933514715440381,4.263061281891147],[-75.933521563625249,4.262947047360094],[-75.933581952164602,4.262952014079189],[-75.933576349104243,4.263166824649313]]]]}}
]
}
