{
"type": "FeatureCollection",
"name": "instituciones_de_salud",
"crs": { "type": "name", "properties": { "name": "urn:ogc:def:crs:OGC:1.3:CRS84" } },
"features": [
{"type":"Feature","properties":{"id":2,"Nombre":"Centro de salud El Lago"},"geometry":{"type":"MultiPolygon","coordinates":[[[[-75.930318084952404,4.273120557129274],[-75.930327492051276,4.273038808854976],[-75.930523697256348,4.273061591161804],[-75.9305129462862,4.273156740788884],[-75.930318084952404,4.273120557129274]]]]}},
{"type":"Feature","properties":{"id":1,"Nombre":"Hospital Centenario de Sevilla"},"geometry":{"type":"MultiPolygon","coordinates":[[[[-75.927673928991922,4.268508843606089],[-75.927765312238137,4.268506163318829],[-75.927770687723211,4.268626776236305],[-75.927835193544055,4.268599973367392],[-75.9278540077418,4.268691103117876],[-75.928243730409406,4.268594612793498],[-75.928243730409406,4.268629456523144],[-75.928278671062358,4.268624095949456],[-75.92827329557727,4.268648218530762],[-75.928318987200399,4.268637497383608],[-75.928340489140666,4.268712545410536],[-75.928259856864614,4.268728627129638],[-75.928281358804881,4.268787593430127],[-75.928415745931659,4.268758110280449],[-75.928426496901793,4.268833158295585],[-75.928383493021229,4.268838518867814],[-75.928413058189093,4.268953771161682],[-75.928496378207711,4.268935009161534],[-75.928509816920382,4.268980574018241],[-75.928442623357,4.269004696588343],[-75.928450686584611,4.269095826290778],[-75.928504441435308,4.269082424864629],[-75.92852056789053,4.269146751708016],[-75.928466813039819,4.269170874272896],[-75.928482939495041,4.269251282817019],[-75.928165785875876,4.269318289930688],[-75.928157722648265,4.269272725094031],[-75.928101280055046,4.26928344623231],[-75.928063651659528,4.269160153133042],[-75.928036774234187,4.26916283341802],[-75.928004521323786,4.269055622011626],[-75.927969580670791,4.269069023438244],[-75.927923889047705,4.268892124588045],[-75.9278540077418,4.268902845731642],[-75.927840569029129,4.268851920298222],[-75.927749185782929,4.268868002014405],[-75.927673928991922,4.268508843606089]]]]}}
]
}
