{
"type": "FeatureCollection",
"name": "instituciones_públicas",
"crs": { "type": "name", "properties": { "name": "urn:ogc:def:crs:OGC:1.3:CRS84" } },
"features": [
{"type":"Feature","properties":{"id":1,"Nombre":"Alcaldía de Sevilla"},"geometry":{"type":"MultiPolygon","coordinates":[[[[-75.934276438963721,4.264911091543127],[-75.934268428052263,4.265078854816003],[-75.934235239990542,4.265077713569372],[-75.934227229079085,4.265203821311787],[-75.933993768231147,4.265193550093723],[-75.934006929014231,4.264898537827357],[-75.934276438963721,4.264911091543127]]]]}},
{"type":"Feature","properties":{"id":2,"Nombre":"Juzgados de Circuito"},"geometry":{"type":"MultiPolygon","coordinates":[[[[-75.931644713735849,4.262680786532522],[-75.931548582798456,4.262676221531746],[-75.93154343292683,4.262801188418235],[-75.931484495506865,4.262800047168222],[-75.93147419576357,4.263039709633771],[-75.931622969833327,4.263047698381336],[-75.931644713735849,4.262680786532522]]]]}},
{"type":"Feature","properties":{"id":3,"Nombre":"Coliseo Cubierto"},"geometry":{"type":"MultiPolygon","coordinates":[[[[-75.931962937358378,4.266740496966639],[-75.931530348140114,4.266716530838886],[-75.931549803210785,4.26635818007759],[-75.931982392429049,4.266383287461218],[-75.931962937358378,4.266740496966639]]]]}}
]
}
