{"type":"FeatureCollection","features":[{"type":"Feature","properties":{"category":"salud","name":"Hospital centenario sevilla"},"geometry":{"type":"Point","coordinates":[-75.928151,4.26886]}},{"type":"Feature","properties":{"category":"educacion","name":"Casa de la Providencia"},"geometry":{"type":"Point","coordinates":[-75.9341976,4.2627756]}},{"type":"Feature","properties":{"category":"educacion","name":"Rafael Pombo"},"geometry":{"type":"Point","coordinates":[-75.933254,4.2652527]}},{"type":"Feature","properties":{"category":"gobierno","name":"Juzgados de Circuito"},"geometry":{"type":"Point","coordinates":[-75.9315866,4.262853]}},{"type":"Feature","properties":{"category":"gobierno","name":"Alcaldía Sevilla"},"geometry":{"type":"Polygon","coordinates":[[[-75.934007,4.2648975],[-75.934279,4.2649102],[-75.934271,4.2650788],[-75.9342352,4.2650771],[-75.9342291,4.2652056],[-75.933993,4.2651945],[-75.934007,4.2648975]]]}},{"type":"Feature","properties":{"category":"educacion","name":"Institución Educativa General Santander"},"geometry":{"type":"Polygon","coordinates":[[[-75.9312695,4.2700063],[-75.9311152,4.2701283],[-75.9307322,4.2702875],[-75.9305035,4.2704095],[-75.9303651,4.2704413],[-75.9302109,4.2704572],[-75.9300513,4.270489],[-75.9299396,4.2705898],[-75.9296417,4.2701389],[-75.9295538,4.2700807],[-75.9294948,4.2699995],[-75.9294299,4.2699782],[-75.9294051,4.2698711],[-75.9294236,4.2697676],[-75.9297546,4.2696359],[-75.930235,4.2695264],[-75.9304407,4.2695036],[-75.9306338,4.2695448],[-75.930812,4.2695607],[-75.9310567,4.2695342],[-75.9311897,4.2697941],[-75.9312695,4.2700063]]]}},{"type":"Feature","properties":{"category":"educacion","name":"Institución Educativa Sevilla"},"geometry":{"type":"Polygon","coordinates":[[[-75.9348865,4.262394],[-75.9342207,4.2623565],[-75.9342573,4.2617114],[-75.9349231,4.2617489],[-75.9348865,4.262394]]]}},{"type":"Feature","properties":{"category":"educacion","name":"-Maria Inmáculadä"},"geometry":{"type":"Polygon","coordinates":[[[-75.9326711,4.2651568],[-75.932589,4.2651533],[-75.9326007,4.2648861],[-75.9324636,4.2648801],[-75.932452,4.2651473],[-75.932372,4.2651439],[-75.9323873,4.2647942],[-75.9328034,4.2648122],[-75.9327994,4.2649038],[-75.9326824,4.2648987],[-75.9326711,4.2651568]]]}},{"type":"Feature","properties":{"category":"educacion","name":"Heracilio Uribe"},"geometry":{"type":"Polygon","coordinates":[[[-75.93216,4.2661218],[-75.9320608,4.2661133],[-75.9320981,4.2656808],[-75.9318311,4.2656579],[-75.931824,4.2657395],[-75.9316966,4.2657285],[-75.9317039,4.265645],[-75.9316631,4.2656415],[-75.9316491,4.2658032],[-75.9315569,4.2657953],[-75.9315794,4.2655338],[-75.9322061,4.2655875],[-75.93216,4.2661218]]]}},{"type":"Feature","properties":{"category":"educacion","name":null},"geometry":{"type":"Polygon","coordinates":[[[-75.9355713,4.2891943],[-75.9351796,4.2890904],[-75.9353007,4.2886365],[-75.9355331,4.2886981],[-75.9355514,4.2886296],[-75.9357324,4.2886776],[-75.9356209,4.2890955],[-75.935593,4.2892001],[-75.9355713,4.2891943]]]}},{"type":"Feature","properties":{"category":"educacion","name":"La Granja"},"geometry":{"type":"Polygon","coordinates":[[[-75.9051647,4.2820588],[-75.9053766,4.2819719],[-75.9054758,4.2818756],[-75.9055254,4.2817539],[-75.9054986,4.2815533],[-75.9055442,4.2813487],[-75.9054128,4.2812457],[-75.9053122,4.2813514],[-75.9051392,4.2812029],[-75.9049756,4.2811428],[-75.9048415,4.2812123],[-75.9046685,4.281441],[-75.9046349,4.2816282],[-75.9044941,4.2816804],[-75.9045813,4.281794],[-75.9047141,4.2818302],[-75.904883,4.2819425],[-75.90504,4.2820013],[-75.9051164,4.2820401],[-75.9051647,4.2820588]]]}}]}